{
  "norad_id": 67413,
  "name": "STARLINK-36442",
  "history": [
    {
      "epoch": "2026-03-28T13:09:38.059488",
      "apogee_km": 484.0707097929535,
      "perigee_km": 481.9163148120915,
      "latitude_deg": 14.33458161360397,
      "longitude_deg": -106.05771167995408,
      "semi_major_axis_km": 6861.130512302522,
      "eccentricity": 0.000157,
      "inclination_deg": 43.0019,
      "raan_deg": 131.2174,
      "arg_perigee_deg": 273.6959,
      "mean_anomaly_deg": 86.3713,
      "mean_motion_rev_day": 15.27598563
    }
  ]
}