{"fetched_at":"2026-03-29T02:12:04Z","count":15717,"tles":[{"name":"STARLINK-36442","line1":"1 67413U 26005K   26087.54835717  .00022462  00000+0  82282-3 0  9997","line2":"2 67413  43.0019 131.2174 0001570 273.6959  86.3713 15.27598564 11588","category":"Starlink"}]}